ONEWEB-0379             
1 49305U 21090AC  24286.36580275  .00000075  00000+0  16904-3 0  9995
2 49305  87.8999  51.5634 0001739 102.9346 257.1978 13.14505321147053
ONEWEB-0380             
1 49306U 21090AD  24286.43380243  .00000142  00000+0  32356-3 0  9991
2 49306  87.9139  66.8329 0001692  95.6226 264.5099 13.19728009145604
ONEWEB-0381             
1 49307U 21090AE  24286.58891666  .00000080  00000+0  16581-3 0  9997
2 49307  87.9282  36.2921 0001653  96.2906 263.8416 13.20775075148966
ONEWEB-0382             
1 49308U 21090AF  24286.57627462  .00000147  00000+0  32852-3 0  9991
2 49308  87.9281  36.2908 0001493 112.4513 247.6778 13.20771530148950
ONEWEB-0383             
1 49309U 21090AG  24286.58781670  .00000176  00000+0  44122-3 0  9990
2 49309  87.8997  51.5051 0001686 107.6918 252.4396 13.14504190147118
ONEWEB-0384             
1 49310U 21090AH  24286.57312582  .00000159  00000+0  35885-3 0  9990
2 49310  87.9287  36.3051 0001445 117.8706 242.2574 13.20771057148969
ONEWEB-0385             
1 49311U 21090AJ  24286.56840175  .00000132  00000+0  29187-3 0  9993
2 49311  87.9287  36.3069 0001460 108.1829 251.9463 13.20770145148933
ONEWEB-0386             
1 49312U 21090AK  24286.58576376 -.00000911  00000+0 -22715-2 0  9991
2 49312  87.9274  36.2902 0001596 103.0078 257.1234 13.20775170148954
